LUR-1                   
1 60506U 24149AQ  26068.79566301  .00009121  00000+0  32985-3 0  9998
2 60506  97.3790 148.4255 0002777 309.1571  50.9421 15.28658648 86785
STARLINK-35853          
1 67177U 25303Q   26067.70417879  .00014547  00000+0  53714-3 0  9998
2 67177  42.9964 316.3452 0001249 280.8737  79.1974 15.27576586 12584
